[Satellite]
VERSION=1.1
NAME=COSMOS 2432 (719)
NICKNAME=COSMOS 2432 (719)
TLE1=1 32276U 07052B   19316.71333124 -.00000049  00000-0  10000-3 0  9996
TLE2=2 32276  65.9213  36.2672 0009041 322.9551  12.8725  2.13103605 93766
STATUS=0
